{
  "type": "FeatureCollection",
  "features": [
    {
      "type": "Feature",
      "properties": {
        "norad_id": 35159,
        "name": "FENGYUN 1C DEB",
        "group": "fengyun-1c-debris",
        "lat": 81.14769521676266,
        "lon": -17.921111225913688,
        "alt_km": 729.6684106762468,
        "timestamp": "2025-12-20T07:33:51.100164+00:00",
        "meta_object_name": "FENGYUN 1C DEB",
        "meta_object_id": "1999-025DMP",
        "meta_epoch": "2025-12-18T03:56:12.547968",
        "meta_mean_motion": 14.45218567,
        "meta_eccentricity": 0.00125233,
        "meta_inclination": 98.8399,
        "meta_ra_of_asc_node": 67.5884,
        "meta_arg_of_pericenter": 158.7222,
        "meta_mean_anomaly": 265.4799,
        "meta_ephemeris_type": 0,
        "meta_classification_type": "U",
        "meta_norad_cat_id": 35159,
        "meta_element_set_no": 999,
        "meta_rev_at_epoch": 61559,
        "meta_bstar": 0.0014431144,
        "meta_mean_motion_dot": 5.018e-05,
        "meta_mean_motion_ddot": 0,
        "tle_line1": "1 35159U 99025DMP 25352.16403412  .00005018  00000+0  14431-2 0  9994",
        "tle_line2": "2 35159  98.8399  67.5884 0012523 158.7222 265.4799 14.45218567615590"
      },
      "geometry": {
        "type": "Point",
        "coordinates": [
          -17.921111225913688,
          81.14769521676266
        ]
      }
    },
    {
      "type": "Feature",
      "properties": {
        "norad_id": 35160,
        "name": "FENGYUN 1C DEB",
        "group": "fengyun-1c-debris",
        "lat": -75.52503467537032,
        "lon": 147.87384157496666,
        "alt_km": 722.1383225214458,
        "timestamp": "2025-12-20T07:33:51.100174+00:00",
        "meta_object_name": "FENGYUN 1C DEB",
        "meta_object_id": "1999-025DMQ",
        "meta_epoch": "2025-12-16T13:37:44.190912",
        "meta_mean_motion": 14.35976797,
        "meta_eccentricity": 0.01760845,
        "meta_inclination": 99.155,
        "meta_ra_of_asc_node": 105.2355,
        "meta_arg_of_pericenter": 228.1924,
        "meta_mean_anomaly": 130.4106,
        "meta_ephemeris_type": 0,
        "meta_classification_type": "U",
        "meta_norad_cat_id": 35160,
        "meta_element_set_no": 999,
        "meta_rev_at_epoch": 64986,
        "meta_bstar": 0.00041002814,
        "meta_mean_motion_dot": 1.364e-05,
        "meta_mean_motion_ddot": 0,
        "tle_line1": "1 35160U 99025DMQ 25350.56787258  .00001364  00000+0  41003-3 0  9997",
        "tle_line2": "2 35160  99.1550 105.2355 0176084 228.1924 130.4106 14.35976797649867"
      },
      "geometry": {
        "type": "Point",
        "coordinates": [
          147.87384157496666,
          -75.52503467537032
        ]
      }
    },
    {
      "type": "Feature",
      "properties": {
        "norad_id": 35165,
        "name": "FENGYUN 1C DEB",
        "group": "fengyun-1c-debris",
        "lat": -7.8739137567060755,
        "lon": 87.63618188256606,
        "alt_km": 772.9156688066023,
        "timestamp": "2025-12-20T07:33:51.100183+00:00",
        "meta_object_name": "FENGYUN 1C DEB",
        "meta_object_id": "1999-025DMV",
        "meta_epoch": "2025-12-18T05:21:32.210208",
        "meta_mean_motion": 14.33859708,
        "meta_eccentricity": 0.00204642,
        "meta_inclination": 98.8788,
        "meta_ra_of_asc_node": 84.2512,
        "meta_arg_of_pericenter": 46.5286,
        "meta_mean_anomaly": 313.7595,
        "meta_ephemeris_type": 0,
        "meta_classification_type": "U",
        "meta_norad_cat_id": 35165,
        "meta_element_set_no": 999,
        "meta_rev_at_epoch": 89799,
        "meta_bstar": 0.0017312247,
        "meta_mean_motion_dot": 4.787e-05,
        "meta_mean_motion_ddot": 0,
        "tle_line1": "1 35165U 99025DMV 25352.22328947  .00004787  00000+0  17312-2 0  9990",
        "tle_line2": "2 35165  98.8788  84.2512 0020464  46.5286 313.7595 14.33859708897992"
      },
      "geometry": {
        "type": "Point",
        "coordinates": [
          87.63618188256606,
          -7.8739137567060755
        ]
      }
    },
    {
      "type": "Feature",
      "properties": {
        "norad_id": 35167,
        "name": "FENGYUN 1C DEB",
        "group": "fengyun-1c-debris",
        "lat": 40.87770718567557,
        "lon": -20.07806156541619,
        "alt_km": 909.3615240456384,
        "timestamp": "2025-12-20T07:33:51.100193+00:00",
        "meta_object_name": "FENGYUN 1C DEB",
        "meta_object_id": "1999-025DMX",
        "meta_epoch": "2025-12-17T22:18:45.149472",
        "meta_mean_motion": 14.31170783,
        "meta_eccentricity": 0.02295949,
        "meta_inclination": 98.4497,
        "meta_ra_of_asc_node": 344.992,
        "meta_arg_of_pericenter": 188.7522,
        "meta_mean_anomaly": 170.9628,
        "meta_ephemeris_type": 0,
        "meta_classification_type": "U",
        "meta_norad_cat_id": 35167,
        "meta_element_set_no": 999,
        "meta_rev_at_epoch": 70094,
        "meta_bstar": 0.00031462149,
        "meta_mean_motion_dot": 1.059e-05,
        "meta_mean_motion_ddot": 0,
        "tle_line1": "1 35167U 99025DMX 25351.92968923  .00001059  00000+0  31462-3 0  9994",
        "tle_line2": "2 35167  98.4497 344.9920 0229594 188.7522 170.9628 14.31170783700948"
      },
      "geometry": {
        "type": "Point",
        "coordinates": [
          -20.07806156541619,
          40.87770718567557
        ]
      }
    },
    {
      "type": "Feature",
      "properties": {
        "norad_id": 35168,
        "name": "FENGYUN 1C DEB",
        "group": "fengyun-1c-debris",
        "lat": -76.357395568241,
        "lon": -77.50294795330554,
        "alt_km": 938.4858819075571,
        "timestamp": "2025-12-20T07:33:51.100203+00:00",
        "meta_object_name": "FENGYUN 1C DEB",
        "meta_object_id": "1999-025DMY",
        "meta_epoch": "2025-12-11T11:53:15.848448",
        "meta_mean_motion": 14.15522112,
        "meta_eccentricity": 0.01260569,
        "meta_inclination": 98.2752,
        "meta_ra_of_asc_node": 237.4634,
        "meta_arg_of_pericenter": 131.2558,
        "meta_mean_anomaly": 229.9558,
        "meta_ephemeris_type": 0,
        "meta_classification_type": "U",
        "meta_norad_cat_id": 35168,
        "meta_element_set_no": 999,
        "meta_rev_at_epoch": 57906,
        "meta_bstar": 0.00034767464,
        "meta_mean_motion_dot": 6.96e-06,
        "meta_mean_motion_ddot": 0,
        "tle_line1": "1 35168U 99025DMY 25345.49532232  .00000696  00000+0  34767-3 0  9997",
        "tle_line2": "2 35168  98.2752 237.4634 0126056 131.2558 229.9558 14.15522112579063"
      },
      "geometry": {
        "type": "Point",
        "coordinates": [
          -77.50294795330554,
          -76.357395568241
        ]
      }
    },
    {
      "type": "Feature",
      "properties": {
        "norad_id": 35169,
        "name": "FENGYUN 1C DEB",
        "group": "fengyun-1c-debris",
        "lat": 55.891521644791645,
        "lon": 72.36252212492025,
        "alt_km": 606.3925964827895,
        "timestamp": "2025-12-20T07:33:51.100213+00:00",
        "meta_object_name": "FENGYUN 1C DEB",
        "meta_object_id": "1999-025DMZ",
        "meta_epoch": "2025-12-13T21:54:45.837792",
        "meta_mean_motion": 14.5866776,
        "meta_eccentricity": 0.01527117,
        "meta_inclination": 99.1288,
        "meta_ra_of_asc_node": 231.5975,
        "meta_arg_of_pericenter": 104.1831,
        "meta_mean_anomaly": 257.6385,
        "meta_ephemeris_type": 0,
        "meta_classification_type": "U",
        "meta_norad_cat_id": 35169,
        "meta_element_set_no": 999,
        "meta_rev_at_epoch": 65797,
        "meta_bstar": 0.00059843273,
        "meta_mean_motion_dot": 3.218e-05,
        "meta_mean_motion_ddot": 0,
        "tle_line1": "1 35169U 99025DMZ 25347.91303053  .00003218  00000+0  59843-3 0  9999",
        "tle_line2": "2 35169  99.1288 231.5975 0152711 104.1831 257.6385 14.58667760657970"
      },
      "geometry": {
        "type": "Point",
        "coordinates": [
          72.36252212492025,
          55.891521644791645
        ]
      }
    },
    {
      "type": "Feature",
      "properties": {
        "norad_id": 35171,
        "name": "FENGYUN 1C DEB",
        "group": "fengyun-1c-debris",
        "lat": -68.48719963485759,
        "lon": -58.22524458838577,
        "alt_km": 849.6569402715659,
        "timestamp": "2025-12-20T07:33:51.100223+00:00",
        "meta_object_name": "FENGYUN 1C DEB",
        "meta_object_id": "1999-025DNB",
        "meta_epoch": "2025-12-17T21:33:01.857888",
        "meta_mean_motion": 13.94988633,
        "meta_eccentricity": 0.01381219,
        "meta_inclination": 99.0078,
        "meta_ra_of_asc_node": 143.144,
        "meta_arg_of_pericenter": 304.4943,
        "meta_mean_anomaly": 54.3238,
        "meta_ephemeris_type": 0,
        "meta_classification_type": "U",
        "meta_norad_cat_id": 35171,
        "meta_element_set_no": 999,
        "meta_rev_at_epoch": 88630,
        "meta_bstar": 0.0013902005,
        "meta_mean_motion_dot": 1.981e-05,
        "meta_mean_motion_ddot": 0,
        "tle_line1": "1 35171U 99025DNB 25351.89793817  .00001981  00000+0  13902-2 0  9995",
        "tle_line2": "2 35171  99.0078 143.1440 0138121 304.4943  54.3238 13.94988633886306"
      },
      "geometry": {
        "type": "Point",
        "coordinates": [
          -58.22524458838577,
          -68.48719963485759
        ]
      }
    }
  ]
}